GLOBALSTAR M045 [-]     
1 25676U 99019A   23297.11250553 -.00000096  00000+0 -25311-4 0  9991
2 25676  51.9965 221.2473 0001459  76.0057 297.0612 12.27018070119723
GLOBALSTAR M019 [-]     
1 25677U 99019B   23296.78256869  .00000003  00000+0  96501-3 0  9994
2 25677  51.9890 310.1829 0000943 161.6006   9.7786 12.13848872111982
GLOBALSTAR M044 [-]     
1 25678U 99019C   23296.95599381 -.00000042  00000+0  57914-3 0  9992
2 25678  51.9955 185.7201 0006212 325.8212  47.1921 11.90225437 99615
GLOBALSTAR M042 [-]     
1 25679U 99019D   23297.43222882 -.00000048  00000+0  41894-3 0  9992
2 25679  52.0018 309.6737 0003178 135.9731  11.9152 12.22049235111754
GLOBALSTAR M025 [-]     
1 25770U 99031A   23296.81147150 -.00000053  00000+0  43784-3 0  9999
2 25770  51.9781 114.7047 0001026 162.6363 210.0232 11.22546656414067
GLOBALSTAR M049 [-]     
1 25771U 99031B   23296.77798332 -.00000002  00000+0  21962-2 0  9996
2 25771  51.9835 119.2707 0003861  85.4223 274.7014 11.12101883 50404
GLOBALSTAR M047 [-]     
1 25772U 99031C   23296.88828239 -.00000073  00000+0 -92768-4 0  9992
2 25772  51.9811 173.5341 0015804 312.0996  47.8466 11.31916494402901
GLOBALSTAR M052 [-]     
1 25773U 99031D   23296.57300461 -.00000057  00000+0  29147-3 0  9992
2 25773  51.9858 236.8822 0001885 265.4533 265.3258 11.15046575411285
